{
  "norad_id": 47650,
  "name": "STARLINK-2033",
  "history": [
    {
      "epoch": "2026-03-28T22:10:27.142464Z",
      "apogee_km": 467.2673290076309,
      "perigee_km": 465.21004656339574,
      "latitude_deg": 7.123849545037211e-10,
      "longitude_deg": 161.00320817369126,
      "height_km": 468.1497632976317,
      "semi_major_axis_km": 6844.375687785513,
      "eccentricity": 0.00015029,
      "inclination_deg": 53.1543,
      "raan_deg": 319.9537,
      "arg_perigee_deg": 190.7774,
      "mean_anomaly_deg": 169.3196,
      "mean_motion_rev_day": 15.33211267
    },
    {
      "epoch": "2026-03-29T01:18:11.232288Z",
      "apogee_km": 467.2356088539209,
      "perigee_km": 465.153563185454,
      "latitude_deg": 1.791938595840279e-05,
      "longitude_deg": 113.33251399912388,
      "height_km": 468.1168682723548,
      "semi_major_axis_km": 6844.331586019687,
      "eccentricity": 0.0001521,
      "inclination_deg": 53.1543,
      "raan_deg": 319.3452,
      "arg_perigee_deg": 191.0599,
      "mean_anomaly_deg": 169.037,
      "mean_motion_rev_day": 15.33226086
    },
    {
      "epoch": "2026-03-30T00:46:07.594176Z",
      "apogee_km": 466.8632162322283,
      "perigee_km": 464.72927784580133,
      "latitude_deg": -4.7616369184030466e-05,
      "longitude_deg": 115.8210242285825,
      "height_km": 467.7166412978014,
      "semi_major_axis_km": 6843.9332470390145,
      "eccentricity": 0.0001559,
      "inclination_deg": 53.1545,
      "raan_deg": 314.7823,
      "arg_perigee_deg": 197.1503,
      "mean_anomaly_deg": 162.9446,
      "mean_motion_rev_day": 15.33359946
    },
    {
      "epoch": "2026-03-30T00:46:07.595040Z",
      "apogee_km": 466.86328467156,
      "perigee_km": 464.7292094064687,
      "latitude_deg": -4.7357231221628494e-05,
      "longitude_deg": 115.82102081184632,
      "height_km": 467.71670669427806,
      "semi_major_axis_km": 6843.9332470390145,
      "eccentricity": 0.00015591,
      "inclination_deg": 53.1545,
      "raan_deg": 314.7823,
      "arg_perigee_deg": 197.1503,
      "mean_anomaly_deg": 162.9446,
      "mean_motion_rev_day": 15.33359946
    }
  ]
}